{
    "links": {
        "self": "http://www.neowsapp.com/rest/v1/neo/54017128?api_key=iIulBulltgU6a56xZRHN4H3l9WmuAYTsLGpBGhQ2"
    },
    "id": "54017128",
    "neo_reference_id": "54017128",
    "name": "(2020 JJ3)",
    "designation": "2020 JJ3",
    "nasa_jpl_url": "http://ssd.jpl.nasa.gov/sbdb.cgi?sstr=54017128",
    "absolute_magnitude_h": 22.623,
    "estimated_diameter": {
        "kilometers": {
            "estimated_diameter_min": 0.0794245891,
            "estimated_diameter_max": 0.1775987803
        },
        "meters": {
            "estimated_diameter_min": 79.424589083,
            "estimated_diameter_max": 177.5987802746
        },
        "miles": {
            "estimated_diameter_min": 0.0493521363,
            "estimated_diameter_max": 0.1103547317
        },
        "feet": {
            "estimated_diameter_min": 260.5793688472,
            "estimated_diameter_max": 582.6731822763
        }
    },
    "is_potentially_hazardous_asteroid": false,
    "close_approach_data": [
        {
            "close_approach_date": "2017-12-29",
            "close_approach_date_full": "2017-Dec-29 16:00",
            "epoch_date_close_approach": 1514563200000,
            "relative_velocity": {
                "kilometers_per_second": "11.844349397",
                "kilometers_per_hour": "42639.6578292724",
                "miles_per_hour": "26494.6251661943"
            },
            "miss_distance": {
                "astronomical": "0.4810804303",
                "lunar": "187.1402873867",
                "kilometers": "71968607.671563461",
                "miles": "44719219.1493633218"
            },
            "orbiting_body": "Earth"
        },
        {
            "close_approach_date": "2020-05-20",
            "close_approach_date_full": "2020-May-20 13:57",
            "epoch_date_close_approach": 1589983020000,
            "relative_velocity": {
                "kilometers_per_second": "11.7917606188",
                "kilometers_per_hour": "42450.3382278467",
                "miles_per_hour": "26376.9893282973"
            },
            "miss_distance": {
                "astronomical": "0.3729033977",
                "lunar": "145.0594217053",
                "kilometers": "55785554.011682899",
                "miles": "34663535.8933420462"
            },
            "orbiting_body": "Earth"
        }
    ],
    "orbital_data": {
        "orbit_id": "3",
        "orbit_determination_date": "2020-05-26 08:17:34",
        "first_observation_date": "2020-05-13",
        "last_observation_date": "2020-05-26",
        "data_arc_in_days": 13,
        "observations_used": 17,
        "orbit_uncertainty": "8",
        "minimum_orbit_intersection": ".371871",
        "jupiter_tisserand_invariant": "4.437",
        "epoch_osculation": "2458987.5",
        "eccentricity": ".1564567097097876",
        "semi_major_axis": "1.502092311079243",
        "inclination": "23.53849443632633",
        "ascending_node_longitude": "72.4880690689378",
        "orbital_period": "672.424241027151",
        "perihelion_distance": "1.267079890407414",
        "perihelion_argument": "103.5440671108482",
        "aphelion_distance": "1.737104731751072",
        "perihelion_time": "2458900.212920567960",
        "mean_anomaly": "46.73143333966391",
        "mean_motion": ".5353762967410094",
        "equinox": "J2000",
        "orbit_class": {
            "orbit_class_type": "AMO",
            "orbit_class_description": "Near-Earth asteroid orbits similar to that of 1221 Amor",
            "orbit_class_range": "1.017 AU < q (perihelion) < 1.3 AU"
        }
    },
    "is_sentry_object": false
}